CCSDS_OMM_VERS = 2.0
CREATION_DATE  = 
ORIGINATOR     = 

OBJECT_NAME    = UNKNOWN
OBJECT_ID      = 
CENTER_NAME    = EARTH
REF_FRAME      = TEME
TIME_SYSTEM    = UTC
MEAN_ELEMENT_THEORY = SGP/SGP4

EPOCH          = 2026-03-27T16:06:24.305760
MEAN_MOTION    = 14.36197471
ECCENTRICITY   = .0097388
INCLINATION    = 66.7692
RA_OF_ASC_NODE = 231.5828
ARG_OF_PERICENTER = 234.3363
MEAN_ANOMALY   = 124.8644

EPHEMERIS_TYPE = 0
CLASSIFICATION_TYPE = U
NORAD_CAT_ID   = 82597
ELEMENT_SET_NO = 999
REV_AT_EPOCH   = 64404
BSTAR          = .63213E-3
MEAN_MOTION_DOT = .1861E-4
MEAN_MOTION_DDOT = 0

CCSDS_OMM_VERS = 2.0
CREATION_DATE  = 
ORIGINATOR     = 

OBJECT_NAME    = UNKNOWN
OBJECT_ID      = 
CENTER_NAME    = EARTH
REF_FRAME      = TEME
TIME_SYSTEM    = UTC
MEAN_ELEMENT_THEORY = SGP/SGP4

EPOCH          = 2026-03-28T14:32:33.326592
MEAN_MOTION    = 14.49572099
ECCENTRICITY   = .0039097
INCLINATION    = 74.0279
RA_OF_ASC_NODE = 44.8977
ARG_OF_PERICENTER = 320.4653
MEAN_ANOMALY   = 39.3656

EPHEMERIS_TYPE = 0
CLASSIFICATION_TYPE = U
NORAD_CAT_ID   = 82617
ELEMENT_SET_NO = 999
REV_AT_EPOCH   = 65216
BSTAR          = .21224E-3
MEAN_MOTION_DOT = .794E-5
MEAN_MOTION_DDOT = 0

CCSDS_OMM_VERS = 2.0
CREATION_DATE  = 
ORIGINATOR     = 

OBJECT_NAME    = UNKNOWN
OBJECT_ID      = 
CENTER_NAME    = EARTH
REF_FRAME      = TEME
TIME_SYSTEM    = UTC
MEAN_ELEMENT_THEORY = SGP/SGP4

EPOCH          = 2026-03-26T16:25:31.114560
MEAN_MOTION    = 13.16464723
ECCENTRICITY   = .0018428
INCLINATION    = 82.4788
RA_OF_ASC_NODE = 174.5099
ARG_OF_PERICENTER = 191.4493
MEAN_ANOMALY   = 321.9106

EPHEMERIS_TYPE = 0
CLASSIFICATION_TYPE = U
NORAD_CAT_ID   = 82627
ELEMENT_SET_NO = 999
REV_AT_EPOCH   = 59250
BSTAR          = .11211E-2
MEAN_MOTION_DOT = .44E-5
MEAN_MOTION_DDOT = 0

CCSDS_OMM_VERS = 2.0
CREATION_DATE  = 
ORIGINATOR     = 

OBJECT_NAME    = UNKNOWN
OBJECT_ID      = 
CENTER_NAME    = EARTH
REF_FRAME      = TEME
TIME_SYSTEM    = UTC
MEAN_ELEMENT_THEORY = SGP/SGP4

EPOCH          = 2026-03-28T11:57:45.907200
MEAN_MOTION    = 14.07713992
ECCENTRICITY   = .0134776
INCLINATION    = 98.9727
RA_OF_ASC_NODE = 2.3541
ARG_OF_PERICENTER = 301.8524
MEAN_ANOMALY   = 56.9585

EPHEMERIS_TYPE = 0
CLASSIFICATION_TYPE = U
NORAD_CAT_ID   = 82642
ELEMENT_SET_NO = 999
REV_AT_EPOCH   = 63101
BSTAR          = .12789E-2
MEAN_MOTION_DOT = .2305E-4
MEAN_MOTION_DDOT = 0

CCSDS_OMM_VERS = 2.0
CREATION_DATE  = 
ORIGINATOR     = 

OBJECT_NAME    = UNKNOWN
OBJECT_ID      = 
CENTER_NAME    = EARTH
REF_FRAME      = TEME
TIME_SYSTEM    = UTC
MEAN_ELEMENT_THEORY = SGP/SGP4

EPOCH          = 2026-03-25T14:48:05.145408
MEAN_MOTION    = 14.20444327
ECCENTRICITY   = .0211229
INCLINATION    = 98.1567
RA_OF_ASC_NODE = 150.8000
ARG_OF_PERICENTER = 94.7547
MEAN_ANOMALY   = 267.7787

EPHEMERIS_TYPE = 0
CLASSIFICATION_TYPE = U
NORAD_CAT_ID   = 82683
ELEMENT_SET_NO = 999
REV_AT_EPOCH   = 47687
BSTAR          = .46216E-3
MEAN_MOTION_DOT = .1201E-4
MEAN_MOTION_DDOT = 0

CCSDS_OMM_VERS = 2.0
CREATION_DATE  = 
ORIGINATOR     = 

OBJECT_NAME    = UNKNOWN
OBJECT_ID      = 
CENTER_NAME    = EARTH
REF_FRAME      = TEME
TIME_SYSTEM    = UTC
MEAN_ELEMENT_THEORY = SGP/SGP4

EPOCH          = 2026-03-25T16:37:00.225408
MEAN_MOTION    = 13.70110135
ECCENTRICITY   = .0041529
INCLINATION    = 100.5285
RA_OF_ASC_NODE = 62.7057
ARG_OF_PERICENTER = 123.6290
MEAN_ANOMALY   = 236.8825

EPHEMERIS_TYPE = 0
CLASSIFICATION_TYPE = U
NORAD_CAT_ID   = 82693
ELEMENT_SET_NO = 999
REV_AT_EPOCH   = 56785
BSTAR          = .27452E-2
MEAN_MOTION_DOT = .2379E-4
MEAN_MOTION_DDOT = 0

CCSDS_OMM_VERS = 2.0
CREATION_DATE  = 
ORIGINATOR     = 

OBJECT_NAME    = UNKNOWN
OBJECT_ID      = 
CENTER_NAME    = EARTH
REF_FRAME      = TEME
TIME_SYSTEM    = UTC
MEAN_ELEMENT_THEORY = SGP/SGP4

EPOCH          = 2026-03-21T23:50:04.877664
MEAN_MOTION    = 13.29896686
ECCENTRICITY   = .0689281
INCLINATION    = 61.6077
RA_OF_ASC_NODE = 244.5581
ARG_OF_PERICENTER = 326.6082
MEAN_ANOMALY   = 29.3177

EPHEMERIS_TYPE = 0
CLASSIFICATION_TYPE = U
NORAD_CAT_ID   = 82698
ELEMENT_SET_NO = 999
REV_AT_EPOCH   = 55157
BSTAR          = .41623E-3
MEAN_MOTION_DOT = .634E-5
MEAN_MOTION_DDOT = 0

CCSDS_OMM_VERS = 2.0
CREATION_DATE  = 
ORIGINATOR     = 

OBJECT_NAME    = UNKNOWN
OBJECT_ID      = 
CENTER_NAME    = EARTH
REF_FRAME      = TEME
TIME_SYSTEM    = UTC
MEAN_ELEMENT_THEORY = SGP/SGP4

EPOCH          = 2026-03-20T07:20:54.944736
MEAN_MOTION    = 12.90760488
ECCENTRICITY   = .0062446
INCLINATION    = 102.1625
RA_OF_ASC_NODE = 296.9119
ARG_OF_PERICENTER = 84.3928
MEAN_ANOMALY   = 276.4281

EPHEMERIS_TYPE = 0
CLASSIFICATION_TYPE = U
NORAD_CAT_ID   = 82708
ELEMENT_SET_NO = 999
REV_AT_EPOCH   = 53610
BSTAR          = .26577E-2
MEAN_MOTION_DOT = .656E-5
MEAN_MOTION_DDOT = 0

CCSDS_OMM_VERS = 2.0
CREATION_DATE  = 
ORIGINATOR     = 

OBJECT_NAME    = UNKNOWN
OBJECT_ID      = 
CENTER_NAME    = EARTH
REF_FRAME      = TEME
TIME_SYSTEM    = UTC
MEAN_ELEMENT_THEORY = SGP/SGP4

EPOCH          = 2026-03-23T22:02:44.745216
MEAN_MOTION    = 12.17870501
ECCENTRICITY   = .0836249
INCLINATION    = 67.9721
RA_OF_ASC_NODE = 330.9131
ARG_OF_PERICENTER = 301.8070
MEAN_ANOMALY   = 50.4104

EPHEMERIS_TYPE = 0
CLASSIFICATION_TYPE = U
NORAD_CAT_ID   = 82729
ELEMENT_SET_NO = 999
REV_AT_EPOCH   = 54752
BSTAR          = -.42226E-3
MEAN_MOTION_DOT = -.174E-5
MEAN_MOTION_DDOT = 0

CCSDS_OMM_VERS = 2.0
CREATION_DATE  = 
ORIGINATOR     = 

OBJECT_NAME    = UNKNOWN
OBJECT_ID      = 
CENTER_NAME    = EARTH
REF_FRAME      = TEME
TIME_SYSTEM    = UTC
MEAN_ELEMENT_THEORY = SGP/SGP4

EPOCH          = 2026-03-28T09:33:08.633376
MEAN_MOTION    = 13.82995564
ECCENTRICITY   = .0170028
INCLINATION    = 99.0963
RA_OF_ASC_NODE = 245.1720
ARG_OF_PERICENTER = 10.7511
MEAN_ANOMALY   = 18.7511

EPHEMERIS_TYPE = 0
CLASSIFICATION_TYPE = U
NORAD_CAT_ID   = 82739
ELEMENT_SET_NO = 999
REV_AT_EPOCH   = 62071
BSTAR          = .48075E-3
MEAN_MOTION_DOT = .544E-5
MEAN_MOTION_DDOT = 0

CCSDS_OMM_VERS = 2.0
CREATION_DATE  = 
ORIGINATOR     = 

OBJECT_NAME    = UNKNOWN
OBJECT_ID      = 
CENTER_NAME    = EARTH
REF_FRAME      = TEME
TIME_SYSTEM    = UTC
MEAN_ELEMENT_THEORY = SGP/SGP4

EPOCH          = 2026-03-28T03:30:13.155840
MEAN_MOTION    = 13.66535968
ECCENTRICITY   = .0194635
INCLINATION    = 102.8421
RA_OF_ASC_NODE = 161.5469
ARG_OF_PERICENTER = 31.5190
MEAN_ANOMALY   = 329.7433

EPHEMERIS_TYPE = 0
CLASSIFICATION_TYPE = U
NORAD_CAT_ID   = 82741
ELEMENT_SET_NO = 999
REV_AT_EPOCH   = 61147
BSTAR          = .14351E-2
MEAN_MOTION_DOT = .1287E-4
MEAN_MOTION_DDOT = 0

CCSDS_OMM_VERS = 2.0
CREATION_DATE  = 
ORIGINATOR     = 

OBJECT_NAME    = UNKNOWN
OBJECT_ID      = 
CENTER_NAME    = EARTH
REF_FRAME      = TEME
TIME_SYSTEM    = UTC
MEAN_ELEMENT_THEORY = SGP/SGP4

EPOCH          = 2026-03-25T14:12:38.443968
MEAN_MOTION    = 13.09111576
ECCENTRICITY   = .0019213
INCLINATION    = 90.3459
RA_OF_ASC_NODE = 41.4569
ARG_OF_PERICENTER = 189.3652
MEAN_ANOMALY   = 170.7120

EPHEMERIS_TYPE = 0
CLASSIFICATION_TYPE = U
NORAD_CAT_ID   = 82783
ELEMENT_SET_NO = 999
REV_AT_EPOCH   = 51781
BSTAR          = .50946E-3
MEAN_MOTION_DOT = .182E-5
MEAN_MOTION_DDOT = 0

